start=new Date('2022-10-19T00:00:00.000Z').valueOf();
sats=[{"EPOCH":"2022-10-18T13:21:20.352384","EPHEMERIS_TYPE":"0","OBJECT_NAME":"STARLINK-2752","INCLINATION":"53.0554","NORAD_CAT_ID":"48692","OBJECT_TYPE":"PAYLOAD","PERIOD":"95.593","CENTER_NAME":"EARTH","MEAN_MOTION_DOT":"0.00003024","BSTAR":"0.00022187000000","REV_AT_EPOCH":"7772","MEAN_ELEMENT_THEORY":"SGP4","TLE_LINE1":"1 48692U 21044BG  22291.55648556  .00003024  00000-0  22187-3 0  9992","TIME_SYSTEM":"UTC","GP_ID":"215528745","SITE":"AFETR","SEMIMAJOR_AXIS":"6925.369","MEAN_ANOMALY":"278.9496","COUNTRY_CODE":"US","PERIAPSIS":"546.406","TLE_LINE2":"2 48692  53.0554 234.9417 0001195  81.1628 278.9496 15.06393409 77723","LAUNCH_DATE":"2021-05-26","DECAY_DATE":null,"ECCENTRICITY":"0.00011950","APOAPSIS":"548.061","RCS_SIZE":"LARGE","REF_FRAME":"TEME","RA_OF_ASC_NODE":"234.9417","MEAN_MOTION_DDOT":"0.0000000000000","CLASSIFICATION_TYPE":"U","FILE":"3621750","ELEMENT_SET_NO":"999","OBJECT_ID":"2021-044BG","MEAN_MOTION":"15.06393409","ARG_OF_PERICENTER":"81.1628"},{"REF_FRAME":"TEME","APOAPSIS":"548.145","RCS_SIZE":"LARGE","MEAN_MOTION_DDOT":"0.0000000000000","RA_OF_ASC_NODE":"238.2927","CLASSIFICATION_TYPE":"U","ELEMENT_SET_NO":"999","FILE":"3621750","MEAN_MOTION":"15.06384482","OBJECT_ID":"2021-044BH","ARG_OF_PERICENTER":"72.0048","MEAN_ANOMALY":"288.1080","PERIAPSIS":"546.377","TLE_LINE2":"2 48693  53.0544 238.2927 0001277  72.0048 288.1080 15.06384482 77703","COUNTRY_CODE":"US","DECAY_DATE":null,"LAUNCH_DATE":"2021-05-26","ECCENTRICITY":"0.00012770","BSTAR":"-0.00001932000000","TIME_SYSTEM":"UTC","GP_ID":"215526994","REV_AT_EPOCH":"7770","MEAN_ELEMENT_THEORY":"SGP4","TLE_LINE1":"1 48693U 21044BH  22291.89602246 -.00000569  00000-0 -19320-4 0  9995","SITE":"AFETR","SEMIMAJOR_AXIS":"6925.396","OBJECT_NAME":"STARLINK-2618","EPOCH":"2022-10-18T21:30:16.340544","EPHEMERIS_TYPE":"0","INCLINATION":"53.0544","NORAD_CAT_ID":"48693","OBJECT_TYPE":"PAYLOAD","PERIOD":"95.593","CENTER_NAME":"EARTH","MEAN_MOTION_DOT":"-0.00000569"},{"TLE_LINE1":"1 48694U 21044BJ  22291.59883916  .00001546  00000-0  12270-3 0  9998","MEAN_ELEMENT_THEORY":"SGP4","REV_AT_EPOCH":"7758","GP_ID":"215527244","TIME_SYSTEM":"UTC","BSTAR":"0.00012270000000","SEMIMAJOR_AXIS":"6925.385","SITE":"AFETR","NORAD_CAT_ID":"48694","INCLINATION":"53.0543","EPHEMERIS_TYPE":"0","EPOCH":"2022-10-18T14:22:19.703424","OBJECT_NAME":"STARLINK-2748","MEAN_MOTION_DOT":"0.00001546","CENTER_NAME":"EARTH","PERIOD":"95.593","OBJECT_TYPE":"PAYLOAD","RA_OF_ASC_NODE":"244.6273","MEAN_MOTION_DDOT":"0.0000000000000","APOAPSIS":"548.122","RCS_SIZE":"LARGE","REF_FRAME":"TEME","ARG_OF_PERICENTER":"57.7478","OBJECT_ID":"2021-044BJ","FILE":"3621750","ELEMENT_SET_NO":"999","MEAN_MOTION":"15.06388091","CLASSIFICATION_TYPE":"U","COUNTRY_CODE":"US","TLE_LINE2":"2 48694  53.0543 244.6273 0001259  57.7478 302.3633 15.06388091 77584","PERIAPSIS":"546.378","MEAN_ANOMALY":"302.3633","ECCENTRICITY":"0.00012590","LAUNCH_DATE":"2021-05-26","DECAY_DATE":null},{"SITE":"AFETR","SEMIMAJOR_AXIS":"6925.372","BSTAR":"0.00005462100000","TIME_SYSTEM":"UTC","GP_ID":"215497153","REV_AT_EPOCH":"7754","MEAN_ELEMENT_THEORY":"SGP4","TLE_LINE1":"1 48695U 21044BK  22291.29016841  .00000532  00000-0  54621-4 0  9992","OBJECT_TYPE":"PAYLOAD","PERIOD":"95.593","CENTER_NAME":"EARTH","MEAN_MOTION_DOT":"0.00000532","OBJECT_NAME":"STARLINK-2616","EPOCH":"2022-10-18T06:57:50.550624","EPHEMERIS_TYPE":"0","INCLINATION":"53.0550","NORAD_CAT_ID":"48695","CLASSIFICATION_TYPE":"U","MEAN_MOTION":"15.06392491","FILE":"3621474","ELEMENT_SET_NO":"999","OBJECT_ID":"2021-044BK","ARG_OF_PERICENTER":"67.0691","REF_FRAME":"TEME","RCS_SIZE":"LARGE","APOAPSIS":"548.256","MEAN_MOTION_DDOT":"0.0000000000000","RA_OF_ASC_NODE":"246.0655","DECAY_DATE":null,"LAUNCH_DATE":"2021-05-26","ECCENTRICITY":"0.00014720","MEAN_ANOMALY":"293.0454","PERIAPSIS":"546.217","TLE_LINE2":"2 48695  53.0550 246.0655 0001472  67.0691 293.0454 15.06392491 77543","COUNTRY_CODE":"US"},{"REV_AT_EPOCH":"7752","MEAN_ELEMENT_THEORY":"SGP4","TLE_LINE1":"1 48696U 21044BL  22291.61222862  .00002434  00000-0  18226-3 0  9994","TIME_SYSTEM":"UTC","GP_ID":"215528246","BSTAR":"0.00018226000000","SEMIMAJOR_AXIS":"6925.380","SITE":"AFETR","INCLINATION":"53.0557","NORAD_CAT_ID":"48696","EPOCH":"2022-10-18T14:41:36.552768","EPHEMERIS_TYPE":"0","OBJECT_NAME":"STARLINK-2753","CENTER_NAME":"EARTH","MEAN_MOTION_DOT":"0.00002434","PERIOD":"95.593","OBJECT_TYPE":"PAYLOAD","RA_OF_ASC_NODE":"249.6105","MEAN_MOTION_DDOT":"0.0000000000000","RCS_SIZE":"LARGE","APOAPSIS":"548.381","REF_FRAME":"TEME","ARG_OF_PERICENTER":"67.2976","CLASSIFICATION_TYPE":"U","ELEMENT_SET_NO":"999","FILE":"3621750","OBJECT_ID":"2021-044BL","MEAN_MOTION":"15.06389865","COUNTRY_CODE":"US","PERIAPSIS":"546.108","TLE_LINE2":"2 48696  53.0557 249.6105 0001641  67.2976 292.8187 15.06389865 77525","MEAN_ANOMALY":"292.8187","ECCENTRICITY":"0.00016410","LAUNCH_DATE":"2021-05-26","DECAY_DATE":null},{"MEAN_ANOMALY":"287.9204","TLE_LINE2":"2 48697  53.0538 250.9332 0001397  72.1937 287.9204 15.06407044 77471","PERIAPSIS":"546.225","COUNTRY_CODE":"US","DECAY_DATE":null,"LAUNCH_DATE":"2021-05-26","ECCENTRICITY":"0.00013970","REF_FRAME":"TEME","APOAPSIS":"548.159","RCS_SIZE":"LARGE","MEAN_MOTION_DDOT":"0.0000000000000","RA_OF_ASC_NODE":"250.9332","MEAN_MOTION":"15.06407044","FILE":"3621474","ELEMENT_SET_NO":"999","OBJECT_ID":"2021-044BM","CLASSIFICATION_TYPE":"U","ARG_OF_PERICENTER":"72.1937","OBJECT_NAME":"STARLINK-2715","EPHEMERIS_TYPE":"0","EPOCH":"2022-10-18T07:26:21.223968","NORAD_CAT_ID":"48697","INCLINATION":"53.0538","PERIOD":"95.592","OBJECT_TYPE":"PAYLOAD","MEAN_MOTION_DOT":"0.00002530","CENTER_NAME":"EARTH","BSTAR":"0.00018862000000","GP_ID":"215496152","TIME_SYSTEM":"UTC","TLE_LINE1":"1 48697U 21044BM  22291.30996787  .00002530  00000-0  18862-3 0  9998","MEAN_ELEMENT_THEORY":"SGP4","REV_AT_EPOCH":"7747","SITE":"AFETR","SEMIMAJOR_AXIS":"6925.327"},{"TLE_LINE2":"2 48879  97.5160  58.7821 0001739  66.9347 358.8456 15.02891120  1304","PERIAPSIS":"556.782","COUNTRY_CODE":"US","MEAN_ANOMALY":"358.8456","ECCENTRICITY":"0.00017390","DECAY_DATE":null,"LAUNCH_DATE":"2021-06-30","MEAN_MOTION_DDOT":"0.0000000000000","RA_OF_ASC_NODE":"58.7821","REF_FRAME":"TEME","APOAPSIS":"559.195","RCS_SIZE":"LARGE","ARG_OF_PERICENTER":"66.9347","FILE":"3621750","MEAN_MOTION":"15.02891120","ELEMENT_SET_NO":"999","OBJECT_ID":"2021-059A","CLASSIFICATION_TYPE":"U","NORAD_CAT_ID":"48879","INCLINATION":"97.5160","OBJECT_NAME":"STARLINK-3003","EPHEMERIS_TYPE":"0","EPOCH":"2022-10-18T22:00:00.999936","CENTER_NAME":"EARTH","MEAN_MOTION_DOT":"-0.00023158","PERIOD":"95.815","OBJECT_TYPE":"PAYLOAD","GP_ID":"215527763","TIME_SYSTEM":"UTC","TLE_LINE1":"1 48879U 21059A   22291.91667824 -.00023158  00000-0 -17286-2 0  9999","MEAN_ELEMENT_THEORY":"SGP4","REV_AT_EPOCH":"130","BSTAR":"-0.00172860000000","SEMIMAJOR_AXIS":"6936.124","SITE":"AFETR"},{"INCLINATION":"97.5151","NORAD_CAT_ID":"48880","EPOCH":"2022-10-18T22:00:00.999936","EPHEMERIS_TYPE":"0","OBJECT_NAME":"STARLINK-3004","CENTER_NAME":"EARTH","MEAN_MOTION_DOT":"-0.00023308","OBJECT_TYPE":"PAYLOAD","PERIOD":"95.815","MEAN_ELEMENT_THEORY":"SGP4","REV_AT_EPOCH":"130","TLE_LINE1":"1 48880U 21059B   22291.91667824 -.00023308  00000-0 -17398-2 0  9992","TIME_SYSTEM":"UTC","GP_ID":"215528006","BSTAR":"-0.00173980000000","SEMIMAJOR_AXIS":"6936.121","SITE":"AFETR","COUNTRY_CODE":"US","PERIAPSIS":"556.726","TLE_LINE2":"2 48880  97.5151  58.7857 0001816  67.6546   7.3699 15.02892012  1306","MEAN_ANOMALY":"7.3699","ECCENTRICITY":"0.00018160","LAUNCH_DATE":"2021-06-30","DECAY_DATE":null,"RA_OF_ASC_NODE":"58.7857","MEAN_MOTION_DDOT":"0.0000000000000","APOAPSIS":"559.246","RCS_SIZE":"LARGE","REF_FRAME":"TEME","ARG_OF_PERICENTER":"67.6546","CLASSIFICATION_TYPE":"U","FILE":"3621750","ELEMENT_SET_NO":"999","MEAN_MOTION":"15.02892012","OBJECT_ID":"2021-059B"},{"SEMIMAJOR_AXIS":"6936.132","SITE":"AFETR","MEAN_ELEMENT_THEORY":"SGP4","REV_AT_EPOCH":"130","TLE_LINE1":"1 48881U 21059C   22291.91667824 -.00023319  00000-0 -17408-2 0  9997","TIME_SYSTEM":"UTC","GP_ID":"215528765","BSTAR":"-0.00174080000000","MEAN_MOTION_DOT":"-0.00023319","CENTER_NAME":"EARTH","OBJECT_TYPE":"PAYLOAD","PERIOD":"95.816","INCLINATION":"97.5161","NORAD_CAT_ID":"48881","EPOCH":"2022-10-18T22:00:00.999936","EPHEMERIS_TYPE":"0","OBJECT_NAME":"STARLINK-3005","ARG_OF_PERICENTER":"66.5192","CLASSIFICATION_TYPE":"U","FILE":"3621750","MEAN_MOTION":"15.02888356","ELEMENT_SET_NO":"999","OBJECT_ID":"2021-059C","RA_OF_ASC_NODE":"58.8166","MEAN_MOTION_DDOT":"0.0000000000000","APOAPSIS":"559.307","RCS_SIZE":"LARGE","REF_FRAME":"TEME","ECCENTRICITY":"0.00018880","LAUNCH_DATE":"2021-06-30","DECAY_DATE":null,"COUNTRY_CODE":"US","PERIAPSIS":"556.688","TLE_LINE2":"2 48881  97.5161  58.8166 0001888  66.5192  31.5758 15.02888356  1307","MEAN_ANOMALY":"31.5758"},{"MEAN_MOTION_DDOT":"0.0000000000000","RA_OF_ASC_NODE":"135.5306","REF_FRAME":"TEME","APOAPSIS":"574.169","RCS_SIZE":"LARGE","ARG_OF_PERICENTER":"256.5415","FILE":"3621750","ELEMENT_SET_NO":"999","OBJECT_ID":"2021-082B","MEAN_MOTION":"14.98312903","CLASSIFICATION_TYPE":"U","TLE_LINE2":"2 49131  69.9994 135.5306 0002962 256.5415 103.5414 14.98312903 61540","PERIAPSIS":"570.052","COUNTRY_CODE":"US","MEAN_ANOMALY":"103.5414","ECCENTRICITY":"0.00029620","DECAY_DATE":null,"LAUNCH_DATE":"2021-09-14","GP_ID":"215528795","TIME_SYSTEM":"UTC","TLE_LINE1":"1 49131U 21082B   22291.83034220  .00001315  00000-0  11807-3 0  9999","REV_AT_EPOCH":"6154","MEAN_ELEMENT_THEORY":"SGP4","BSTAR":"0.00011807000000","SEMIMAJOR_AXIS":"6950.246","SITE":"AFWTR","NORAD_CAT_ID":"49131","INCLINATION":"69.9994","OBJECT_NAME":"STARLINK-3096","EPHEMERIS_TYPE":"0","EPOCH":"2022-10-18T19:55:41.566080","CENTER_NAME":"EARTH","MEAN_MOTION_DOT":"0.00001315","OBJECT_TYPE":"PAYLOAD","PERIOD":"96.108"}];
